ONEWEB-0387             
1 49313U 21090AL  24035.66349728  .00000054  00000+0  10174-3 0  9995
2 49313  87.9156  86.3841 0001528  99.6318 260.4988 13.20773665115835
ONEWEB-0388             
1 49314U 21090AM  24035.77874408  .00000061  00000+0  12087-3 0  9999
2 49314  87.9191 116.8501 0001935 108.3555 251.7788 13.19726970112530
ONEWEB-0389             
1 50469U 21132A   24035.88050364 -.00000024  00000+0 -95885-4 0  9997
2 50469  87.9241 177.5510 0001076 112.7073 247.4173 13.17650736105685
ONEWEB-0390             
1 50470U 21132B   24035.88208068  .00000014  00000+0  19241-5 0  9995
2 50470  87.9240 177.5590 0001275  89.4048 270.7230 13.17650662105688
ONEWEB-0391             
1 50471U 21132C   24035.88366742 -.00000029  00000+0 -10882-3 0  9998
2 50471  87.9248 177.5309 0001248 119.6859 240.4396 13.17650206104399
ONEWEB-0392             
1 50472U 21132D   24035.91372428  .00000006  00000+0 -16549-4 0  9992
2 50472  87.9234 177.5449 0001173 106.1594 253.9667 13.17649913104432
ONEWEB-0393             
1 50473U 21132E   24035.92243051 -.00000028  00000+0 -10509-3 0  9997
2 50473  87.9245 177.5215 0001329  91.5298 268.5986 13.17650964104420
ONEWEB-0394             
1 50474U 21132F   24035.85089363  .00000011  00000+0 -53278-5 0  9997
2 50474  87.9243 147.2698 0001628 111.2386 248.8920 13.18686044107812
ONEWEB-0395             
1 50475U 21132G   24035.94576799  .00000302  00000+0  81522-3 0  9995
2 50475  87.8986 192.6832 0001169  99.4395 260.6865 13.11419745102570
ONEWEB-0396             
1 50476U 21132H   24035.84455987  .00000016  00000+0  79325-5 0  9992
2 50476  87.9248 147.2628 0001633 113.8205 246.3099 13.18687258107858
ONEWEB-0397             
1 50477U 21132J   24035.85878786 -.00000055  00000+0 -17251-3 0  9993
2 50477  87.9247 147.2612 0001662 114.2534 245.8771 13.18684080109104
ONEWEB-0398             
1 50478U 21132K   24035.91327695 -.00000451  00000+0 -13093-2 0  9998
2 50478  87.8982 192.6745 0001149  81.9493 278.1766 13.11414703102466
ONEWEB-0399             
1 50479U 21132L   24035.89868014  .00000096  00000+0  23640-3 0  9994
2 50479  87.8983 192.6917 0001734 112.7590 247.3721 13.11413756102455
ONEWEB-0400             
1 50480U 21132M   24035.83823936 -.00000034  00000+0 -11850-3 0  9998
2 50480  87.9244 147.2734 0001565  99.9131 260.2178 13.18684351107824
ONEWEB-0401             
1 50481U 21132N   24035.80505919 -.00000015  00000+0 -70336-4 0  9998
2 50481  87.9242 147.2792 0002002 111.5510 248.5836 13.18686380107820
ONEWEB-0402             
1 50482U 21132P   24035.84614134 -.00000015  00000+0 -69560-4 0  9990
2 50482  87.9243 147.2677 0002328 103.3211 256.8181 13.18686997107854
ONEWEB-0403             
1 50483U 21132Q   24035.86986528  .00000041  00000+0  70276-4 0  9995
2 50483  87.9242 147.2681 0001744 117.0521 243.0789 13.18685898107813
ONEWEB-0404             
1 50484U 21132R   24035.88082644  .00000295  00000+0  79656-3 0  9995
2 50484  87.8994 192.6569 0001158 120.1587 239.9656 13.11420466102545
ONEWEB-0405             
1 50485U 21132S   24035.80979308  .00000016  00000+0  78807-5 0  9990
2 50485  87.9243 147.2692 0002109 114.6847 245.4505 13.18685469108208
ONEWEB-0406             
1 50486U 21132T   24035.79873287 -.00000051  00000+0 -16330-3 0  9990
2 50486  87.9248 147.2800 0001339 114.6036 245.5236 13.18685058107833
ONEWEB-0407             
1 50487U 21132U   24035.86827303 -.00000205  00000+0 -55236-3 0  9996
2 50487  87.9240 147.2741 0001875 113.3514 246.7816 13.18685286107786
ONEWEB-0409             
1 50488U 21132V   24035.87921156  .00000547  00000+0  15085-2 0  9993
2 50488  87.8982 192.6656 0000837 109.7041 250.4177 13.11418102102432
ONEWEB-0412             
1 50489U 21132W   24035.85720681  .00000001  00000+0 -29408-4 0  9994
2 50489  87.9248 147.2694 0002173 115.7480 244.3876 13.18684275107870
ONEWEB-0413             
1 50490U 21132X   24035.86198488  .00001351  00000+0  33933-2 0  9995
2 50490  87.9247 147.2819 0002406 107.6083 252.5312 13.18679752107812
ONEWEB-0414             
1 50491U 21132Y   24035.84773223 -.00000016  00000+0 -72422-4 0  9997
2 50491  87.9244 147.2689 0001812 116.7607 243.3711 13.18685895107847
ONEWEB-0417             
1 50492U 21132Z   24035.85562535  .00000020  00000+0  17427-4 0  9998
2 50492  87.9250 147.2608 0001349 110.9301 249.1976 13.18687280107823
ONEWEB-0418             
1 50493U 21132AA  24035.86906821 -.00000022  00000+0 -88361-4 0  9999
2 50493  87.9245 147.2681 0001228 121.1570 238.9683 13.18687551107885
ONEWEB-0419             
1 50494U 21132AB  24035.80663200  .00000007  00000+0 -13811-4 0  9995
2 50494  87.9241 147.3007 0001315 102.8987 257.2292 13.18685791107794
ONEWEB-0420             
1 50495U 21132AC  24035.84930380 -.00000012  00000+0 -63671-4 0  9992
2 50495  87.9242 147.3006 0002095 104.3418 255.7947 13.18684145107799
ONEWEB-0421             
1 50496U 21132AD  24035.84299402 -.00000002  00000+0 -37144-4 0  9991
2 50496  87.9251 147.2573 0002034 118.9976 241.1360 13.18686361107836
ONEWEB-0424             
1 50497U 21132AE  24035.80189724  .00000041  00000+0  72157-4 0  9997
2 50497  87.9245 147.2784 0001349  90.0399 270.0888 13.18686011107851
ONEWEB-0426             
1 50498U 21132AF  24035.83982960  .00000000  00000+0 -32278-4 0  9990
2 50498  87.9241 147.2931 0001536 132.5723 227.5539 13.18686760107809
ONEWEB-0427             
1 50499U 21132AG  24035.80029833 -.00000224  00000+0 -60124-3 0  9998
2 50499  87.9243 147.2767 0001496 113.2150 246.9140 13.18685446107829
ONEWEB-0429             
1 50500U 21132AH  24035.86353082 -.00000305  00000+0 -80583-3 0  9994
2 50500  87.9248 147.2616 0001771 107.9507 252.1819 13.18686453107801
ONEWEB-0430             
1 50501U 21132AJ  24035.85248553  .00000011  00000+0 -55209-5 0  9992
2 50501  87.9245 147.2731 0001646  89.8510 270.2811 13.18675480107845
ONEWEB-0432             
1 50502U 21132AK  24035.80820158 -.00000077  00000+0 -22830-3 0  9990
2 50502  87.9244 147.2763 0001728 103.7602 256.3723 13.18686550107790
ONEWEB-0440             
1 50503U 21132AL  24035.87144651  .00000031  00000+0  47019-4 0  9990
2 50503  87.9247 147.2483 0002283 114.1360 246.0011 13.18686096107798
ONEWEB-0450             
1 50504U 21132AM  24035.86512417 -.00000003  00000+0 -40148-4 0  9996
2 50504  87.9246 147.2778 0002038  97.5463 262.5901 13.18686146107822
ONEWEB-0410             
1 51622U 22012A   24035.89949299 -.00000020  00000+0 -85345-4 0  9998
2 51622  87.9235 177.5345 0001342 151.6047 208.5157 13.17648298100017
ONEWEB-0411             
1 51623U 22012B   24035.94436403 -.00000063  00000+0 -21731-3 0  9998
2 51623  87.8910 207.7250 0001390  85.9958 274.1328 13.10369665 96239
ONEWEB-0415             
1 51624U 22012C   24035.94111863  .00000151  00000+0  39756-3 0  9991
2 51624  87.8904 207.7539 0001308  80.9637 279.1638 13.10369238 96236
ONEWEB-0416             
1 51625U 22012D   24035.87613455 -.00000483  00000+0 -14207-2 0  9991
2 51625  87.8912 207.7535 0001494  99.3613 260.7684 13.10370375 96260
ONEWEB-0422             
1 51626U 22012E   24035.90897646  .00000075  00000+0  16044-3 0  9999
2 51626  87.9239 177.5296 0002345  97.4322 262.7076 13.17650414100124
ONEWEB-0423             
1 51627U 22012F   24035.90264830 -.00000012  00000+0 -64060-4 0  9998
2 51627  87.9241 177.5297 0001630 105.8401 254.2910 13.17650322100016
ONEWEB-0425             
1 51628U 22012G   24035.88586695 -.00000669  00000+0 -19520-2 0  9999
2 51628  87.8911 207.7398 0001590 113.8148 246.3146 13.10372613 96261
ONEWEB-0428             
1 51629U 22012H   24035.94275937  .00000470  00000+0  13113-2 0  9991
2 51629  87.8909 207.7419 0001851  88.1028 272.0312 13.10372593 96239
ONEWEB-0431             
1 51630U 22012J   24035.91173645  .00000380  00000+0  10516-2 0  9997
2 51630  87.8910 207.7538 0001690  71.0908 289.0402 13.10375553 96286
ONEWEB-0434             
1 51631U 22012K   24035.88913314 -.00000604  00000+0 -17659-2 0  9995
2 51631  87.8915 207.7639 0001774  96.6969 263.4360 13.10372902 96269
ONEWEB-0435             
1 51632U 22012L   24035.89723774 -.00000419  00000+0 -12355-2 0  9998
2 51632  87.8918 207.7528 0001945  88.7720 271.3630 13.10376362 96258
ONEWEB-0436             
1 51633U 22012M   24035.89475116  .00000017  00000+0  95969-5 0  9990
2 51633  87.9236 177.5416 0001862 101.4485 258.6856 13.17648080 99990
ONEWEB-0438             
1 51634U 22012N   24035.88099748 -.00000903  00000+0 -26224-2 0  9994
2 51634  87.8915 207.7565 0001703 101.8650 258.2668 13.10368174 96289
ONEWEB-0439             
1 51635U 22012P   24035.88424377 -.00000647  00000+0 -18900-2 0  9992
2 51635  87.8914 207.7393 0001519  94.2335 265.8966 13.10371949 96265
ONEWEB-0442             
1 51636U 22012Q   24035.88682559 -.00000037  00000+0 -12748-3 0  9999
2 51636  87.9239 177.5734 0000907 128.3588 231.7625 13.17644875 99983
ONEWEB-0443             
1 51637U 22012R   24035.90582473  .00000018  00000+0  13531-4 0  9996
2 51637  87.9241 177.5750 0002123 106.7540 253.3824 13.17648440100037
ONEWEB-0444             
1 51638U 22012S   24035.87449729 -.00000425  00000+0 -12529-2 0  9997
2 51638  87.8905 207.7699 0001723  97.0480 263.0843 13.10370676 96277
ONEWEB-0445             
1 51639U 22012T   24035.89560488 -.00000374  00000+0 -11080-2 0  9990
2 51639  87.8910 207.7439 0001203  93.7204 266.4061 13.10373782 96287
ONEWEB-0446             
1 51640U 22012U   24035.87288666 -.00000332  00000+0 -98873-3 0  9995
2 51640  87.8911 207.7606 0001289  88.1174 272.0101 13.10369913 96261
ONEWEB-0448             
1 51641U 22012V   24035.87774806 -.00000533  00000+0 -15637-2 0  9991
2 51641  87.8910 207.7608 0001708  99.5414 260.5907 13.10370236 96235
ONEWEB-0449             
1 51642U 22012W   24035.88262984 -.00000592  00000+0 -17326-2 0  9994
2 51642  87.8907 207.7625 0001466 107.4348 252.6939 13.10371447 96240
